[Satellite]
VERSION=1.1
NAME=FLOCK 3P-23
NICKNAME=FLOCK 3P-23
TLE1=1 42018U 17008BY  17186.12515852  .00002395  00000-0  10652-3 0  9999
TLE2=2 42018  97.4942 247.3554 0010533 123.3102 236.9144 15.22443317 20032
